IRIDIUM 119             
1 42959U 17061E   25186.44693049 -.00000012  00000+0 -11211-4 0  9999
2 42959  86.4004 170.1642 0002440  84.1747 275.9726 14.34217283405119
IRIDIUM 107             
1 42960U 17061F   25186.46595778  .00000179  00000+0  56701-4 0  9998
2 42960  86.4000 170.1752 0002382  75.7821 284.3639 14.34218368405126
IRIDIUM 132             
1 42961U 17061G   25186.47230027  .00000063  00000+0  15307-4 0  9992
2 42961  86.3999 170.1546 0002284  84.5509 275.5947 14.34217764405129
IRIDIUM 136             
1 42962U 17061H   25186.50401324  .00000071  00000+0  18225-4 0  9998
2 42962  86.3999 170.1462 0002478  83.0460 277.1018 14.34218100405146
IRIDIUM 139             
1 42963U 17061J   25186.51035542  .00000215  00000+0  69542-4 0  9993
2 42963  86.4001 170.1999 0002310  81.1435 279.0023 14.34218489405151
IRIDIUM 125             
1 42964U 17061K   25186.49767183  .00000065  00000+0  16162-4 0  9997
2 42964  86.4003 170.2597 0002822  78.4286 281.7226 14.34217861405169
IRIDIUM 135             
1 43070U 17083A   25186.26249047  .00000042  00000+0  79489-5 0  9996
2 43070  86.3970 107.0662 0002099  88.5349 271.6087 14.34217813394425
IRIDIUM 138             
1 43071U 17083B   25186.28786203  .00000022  00000+0  89303-6 0  9994
2 43071  86.3959 106.7241 0002744  86.6002 273.5508 14.34217769394412
